{"type": "FeatureCollection", "features": [ {"type": "Feature", "properties": {"norad_id": 38552, "name": "METEOSAT-10 (MSG-3)", "group": "weather", "lat": -2.607247285262117, "lon": -80.24433894818118, "alt_km": 35783.387591461506, "timestamp": "2025-12-02T13:52:16.919025+00:00", "meta": {"OBJECT_NAME": "METEOSAT-10 (MSG-3)", "OBJECT_ID": "2012-035B", "EPOCH": "2025-12-02T01:48:01.931904", "MEAN_MOTION": 1.002722, "ECCENTRICITY": 6.876e-05, "INCLINATION": 4.2018, "RA_OF_ASC_NODE": 61.7375, "ARG_OF_PERICENTER": 218.9493, "MEAN_ANOMALY": 177.6056, "EPHEMERIS_TYPE": 0, "CLASSIFICATION_TYPE": "U", "NORAD_CAT_ID": 38552, "ELEMENT_SET_NO": 999, "REV_AT_EPOCH": 4888, "BSTAR": 0, "MEAN_MOTION_DOT": 1.3e-07, "MEAN_MOTION_DDOT": 0}, "tle": {"line1": "1 38552U 12035B   25336.07502236  .00000013  00000+0  00000+0 0  9990", "line2": "2 38552   4.2018  61.7375 0000687 218.9493 177.6056  1.00272200 48880"}}, "geometry": {"type": "Point", "coordinates": [-80.24433894818118, -2.607247285262117]}}, {"type": "Feature", "properties": {"norad_id": 38771, "name": "METOP-B", "group": "weather", "lat": -40.70390320061185, "lon": 34.26101701864684, "alt_km": 828.6540761382266, "timestamp": "2025-12-02T13:52:16.919037+00:00", "meta": {"OBJECT_NAME": "METOP-B", "OBJECT_ID": "2012-049A", "EPOCH": "2025-12-02T05:37:05.306016", "MEAN_MOTION": 14.21402018, "ECCENTRICITY": 0.00024307, "INCLINATION": 98.6815, "RA_OF_ASC_NODE": 26.3703, "ARG_OF_PERICENTER": 168.0989, "MEAN_ANOMALY": 192.0247, "EPHEMERIS_TYPE": 0, "CLASSIFICATION_TYPE": "U", "NORAD_CAT_ID": 38771, "ELEMENT_SET_NO": 999, "REV_AT_EPOCH": 68528, "BSTAR": 0.00011371126, "MEAN_MOTION_DOT": 2.05e-06, "MEAN_MOTION_DDOT": 0}, "tle": {"line1": "1 38771U 12049A   25336.23408919  .00000205  00000+0  11371-3 0  9999", "line2": "2 38771  98.6815  26.3703 0002430 168.0989 192.0247 14.21402018685283"}}, "geometry": {"type": "Point", "coordinates": [34.26101701864684, -40.70390320061185]}}, {"type": "Feature", "properties": {"norad_id": 39216, "name": "INSAT-3D", "group": "weather", "lat": -0.8047904902439669, "lon": 49.24448023771404, "alt_km": 35792.638457609086, "timestamp": "2025-12-02T13:52:16.919049+00:00", "meta": {"OBJECT_NAME": "INSAT-3D", "OBJECT_ID": "2013-038B", "EPOCH": "2025-12-02T05:57:38.749824", "MEAN_MOTION": 1.00274464, "ECCENTRICITY": 0.00017064, "INCLINATION": 1.4153, "RA_OF_ASC_NODE": 85.1133, "ARG_OF_PERICENTER": 152.3343, "MEAN_ANOMALY": 52.8253, "EPHEMERIS_TYPE": 0, "CLASSIFICATION_TYPE": "U", "NORAD_CAT_ID": 39216, "ELEMENT_SET_NO": 999, "REV_AT_EPOCH": 4510, "BSTAR": 0, "MEAN_MOTION_DOT": -3.18e-06, "MEAN_MOTION_DDOT": 0}, "tle": {"line1": "1 39216U 13038B   25336.24836516 -.00000318  00000+0  00000+0 0  9991", "line2": "2 39216   1.4153  85.1133 0001706 152.3343  52.8253  1.00274464 45106"}}, "geometry": {"type": "Point", "coordinates": [49.24448023771404, -0.8047904902439669]}}, {"type": "Feature", "properties": {"norad_id": 39260, "name": "FENGYUN 3C", "group": "weather", "lat": 53.695519337994526, "lon": -56.95523332106404, "alt_km": 844.723712054637, "timestamp": "2025-12-02T13:52:16.919060+00:00", "meta": {"OBJECT_NAME": "FENGYUN 3C", "OBJECT_ID": "2013-052A", "EPOCH": "2025-12-02T06:49:44.018400", "MEAN_MOTION": 14.15691032, "ECCENTRICITY": 0.00137808, "INCLINATION": 98.4752, "RA_OF_ASC_NODE": 314.475, "ARG_OF_PERICENTER": 227.53, "MEAN_ANOMALY": 132.4711, "EPHEMERIS_TYPE": 0, "CLASSIFICATION_TYPE": "U", "NORAD_CAT_ID": 39260, "ELEMENT_SET_NO": 999, "REV_AT_EPOCH": 63070, "BSTAR": 0.00010556541, "MEAN_MOTION_DOT": 1.66e-06, "MEAN_MOTION_DDOT": 0}, "tle": {"line1": "1 39260U 13052A   25336.28453725  .00000166  00000+0  10557-3 0  9999", "line2": "2 39260  98.4752 314.4750 0013780 227.5300 132.4711 14.15691032630706"}}, "geometry": {"type": "Point", "coordinates": [-56.95523332106404, 53.695519337994526]}}, {"type": "Feature", "properties": {"norad_id": 40069, "name": "METEOR-M 2", "group": "weather", "lat": -8.098468721986837, "lon": 133.33484777101106, "alt_km": 822.7234924112418, "timestamp": "2025-12-02T13:52:16.919071+00:00", "meta": {"OBJECT_NAME": "METEOR-M 2", "OBJECT_ID": "2014-037A", "EPOCH": "2025-12-02T06:13:51.751200", "MEAN_MOTION": 14.21379933, "ECCENTRICITY": 0.00046742, "INCLINATION": 98.4891, "RA_OF_ASC_NODE": 314.2465, "ARG_OF_PERICENTER": 245.0066, "MEAN_ANOMALY": 115.0627, "EPHEMERIS_TYPE": 0, "CLASSIFICATION_TYPE": "U", "NORAD_CAT_ID": 40069, "ELEMENT_SET_NO": 999, "REV_AT_EPOCH": 59134, "BSTAR": 0.00011682875, "MEAN_MOTION_DOT": 2.13e-06, "MEAN_MOTION_DDOT": 0}, "tle": {"line1": "1 40069U 14037A   25336.25962675  .00000213  00000+0  11683-3 0  9992", "line2": "2 40069  98.4891 314.2465 0004674 245.0066 115.0627 14.21379933591345"}}, "geometry": {"type": "Point", "coordinates": [133.33484777101106, -8.098468721986837]}}, {"type": "Feature", "properties": {"norad_id": 40267, "name": "HIMAWARI-8", "group": "weather", "lat": -0.009184794725886517, "lon": 60.41738456001953, "alt_km": 35790.0169711927, "timestamp": "2025-12-02T13:52:16.919083+00:00", "meta": {"OBJECT_NAME": "HIMAWARI-8", "OBJECT_ID": "2014-060A", "EPOCH": "2025-12-02T05:53:32.884800", "MEAN_MOTION": 1.00272463, "ECCENTRICITY": 0.00012215, "INCLINATION": 0.0108, "RA_OF_ASC_NODE": 165.8094, "ARG_OF_PERICENTER": 112.466, "MEAN_ANOMALY": 22.1496, "EPHEMERIS_TYPE": 0, "CLASSIFICATION_TYPE": "U", "NORAD_CAT_ID": 40267, "ELEMENT_SET_NO": 999, "REV_AT_EPOCH": 4078, "BSTAR": 0, "MEAN_MOTION_DOT": -2.54e-06, "MEAN_MOTION_DDOT": 0}, "tle": {"line1": "1 40267U 14060A   25336.24551950 -.00000254  00000+0  00000+0 0  9990", "line2": "2 40267   0.0108 165.8094 0001221 112.4660  22.1496  1.00272463 40787"}}, "geometry": {"type": "Point", "coordinates": [60.41738456001953, -0.009184794725886517]}}, {"type": "Feature", "properties": {"norad_id": 40367, "name": "FENGYUN 2G", "group": "weather", "lat": -4.2251786119368875, "lon": 19.59764237559875, "alt_km": 35792.3811656628, "timestamp": "2025-12-02T13:52:16.919095+00:00", "meta": {"OBJECT_NAME": "FENGYUN 2G", "OBJECT_ID": "2014-090A", "EPOCH": "2025-12-01T19:25:27.039072", "MEAN_MOTION": 1.00268232, "ECCENTRICITY": 0.00030118, "INCLINATION": 5.1381, "RA_OF_ASC_NODE": 75.2239, "ARG_OF_PERICENTER": 193.0179, "MEAN_ANOMALY": 193.7823, "EPHEMERIS_TYPE": 0, "CLASSIFICATION_TYPE": "U", "NORAD_CAT_ID": 40367, "ELEMENT_SET_NO": 999, "REV_AT_EPOCH": 4002, "BSTAR": 0, "MEAN_MOTION_DOT": -2.82e-06, "MEAN_MOTION_DDOT": 0}, "tle": {"line1": "1 40367U 14090A   25335.80934073 -.00000282  00000+0  00000+0 0  9997", "line2": "2 40367   5.1381  75.2239 0003011 193.0179 193.7823  1.00268232 40026"}}, "geometry": {"type": "Point", "coordinates": [19.59764237559875, -4.2251786119368875]}}, {"type": "Feature", "properties": {"norad_id": 40732, "name": "METEOSAT-11 (MSG-4)", "group": "weather", "lat": -1.6485531873755959, "lon": -70.84683038456329, "alt_km": 35784.06658187416, "timestamp": "2025-12-02T13:52:16.919107+00:00", "meta": {"OBJECT_NAME": "METEOSAT-11 (MSG-4)", "OBJECT_ID": "2015-034A", "EPOCH": "2025-12-02T05:16:06.470976", "MEAN_MOTION": 1.00277424, "ECCENTRICITY": 2.577e-05, "INCLINATION": 2.7093, "RA_OF_ASC_NODE": 72.0278, "ARG_OF_PERICENTER": 161.9881, "MEAN_ANOMALY": 285.7846, "EPHEMERIS_TYPE": 0, "CLASSIFICATION_TYPE": "U", "NORAD_CAT_ID": 40732, "ELEMENT_SET_NO": 999, "REV_AT_EPOCH": 524, "BSTAR": 0, "MEAN_MOTION_DOT": 8.4e-07, "MEAN_MOTION_DDOT": 0}, "tle": {"line1": "1 40732U 15034A   25336.21951934  .00000084  00000+0  00000+0 0  9992", "line2": "2 40732   2.7093  72.0278 0000257 161.9881 285.7846  1.00277424  5241"}}, "geometry": {"type": "Point", "coordinates": [-70.84683038456329, -1.6485531873755959]}}, {"type": "Feature", "properties": {"norad_id": 41105, "name": "ELEKTRO-L 2", "group": "weather", "lat": -1.3359453515040227, "lon": -94.857227160552, "alt_km": 35770.20002422682, "timestamp": "2025-12-02T13:52:16.919119+00:00", "meta": {"OBJECT_NAME": "ELEKTRO-L 2", "OBJECT_ID": "2015-074A", "EPOCH": "2025-12-02T01:43:47.338752", "MEAN_MOTION": 1.00269907, "ECCENTRICITY": 0.00039368, "INCLINATION": 6.1965, "RA_OF_ASC_NODE": 72.9528, "ARG_OF_PERICENTER": 196.8313, "MEAN_ANOMALY": 172.831, "EPHEMERIS_TYPE": 0, "CLASSIFICATION_TYPE": "U", "NORAD_CAT_ID": 41105, "ELEMENT_SET_NO": 999, "REV_AT_EPOCH": 3653, "BSTAR": 0, "MEAN_MOTION_DOT": -9.8e-07, "MEAN_MOTION_DDOT": 0}, "tle": {"line1": "1 41105U 15074A   25336.07207568 -.00000098  00000+0  00000+0 0  9998", "line2": "2 41105   6.1965  72.9528 0003936 196.8313 172.8310  1.00269907 36538"}}, "geometry": {"type": "Point", "coordinates": [-94.857227160552, -1.3359453515040227]}}, {"type": "Feature", "properties": {"norad_id": 41752, "name": "INSAT-3DR", "group": "weather", "lat": -0.0425642084038258, "lon": -6.075867021823082, "alt_km": 35781.6690225119, "timestamp": "2025-12-02T13:52:16.919131+00:00", "meta": {"OBJECT_NAME": "INSAT-3DR", "OBJECT_ID": "2016-054A", "EPOCH": "2025-12-02T02:08:59.925408", "MEAN_MOTION": 1.00269631, "ECCENTRICITY": 0.00143758, "INCLINATION": 0.0638, "RA_OF_ASC_NODE": 89.7219, "ARG_OF_PERICENTER": 179.0448, "MEAN_ANOMALY": 268.7222, "EPHEMERIS_TYPE": 0, "CLASSIFICATION_TYPE": "U", "NORAD_CAT_ID": 41752, "ELEMENT_SET_NO": 999, "REV_AT_EPOCH": 3384, "BSTAR": 0, "MEAN_MOTION_DOT": -5.6e-07, "MEAN_MOTION_DDOT": 0}, "tle": {"line1": "1 41752U 16054A   25336.08958247 -.00000056  00000+0  00000+0 0  9997", "line2": "2 41752   0.0638  89.7219 0014375 179.0448 268.7222  1.00269631 33842"}}, "geometry": {"type": "Point", "coordinates": [-6.075867021823082, -0.0425642084038258]}}]}